{
  "links" : {
    "next" : "https://api.nasa.gov/neo/rest/v1/feed?start_date=2012-01-16&end_date=2012-01-16&detailed=true&api_key=t0TVs3DtDT2H8Oy2Zy8m2eVrNsAVKAexjcZXUckd",
    "prev" : "https://api.nasa.gov/neo/rest/v1/feed?start_date=2012-01-14&end_date=2012-01-14&detailed=true&api_key=t0TVs3DtDT2H8Oy2Zy8m2eVrNsAVKAexjcZXUckd",
    "self" : "https://api.nasa.gov/neo/rest/v1/feed?start_date=2012-01-15&end_date=2012-01-15&detailed=true&api_key=t0TVs3DtDT2H8Oy2Zy8m2eVrNsAVKAexjcZXUckd"
  },
  "element_count" : 15,
  "near_earth_objects" : {
    "2012-01-15" : [ {
      "links" : {
        "self" : "https://api.nasa.gov/neo/rest/v1/neo/3600234?api_key=t0TVs3DtDT2H8Oy2Zy8m2eVrNsAVKAexjcZXUckd"
      },
      "neo_reference_id" : "3600234",
      "name" : "(2012 DT60)",
      "nasa_jpl_url" : "http://ssd.jpl.nasa.gov/sbdb.cgi?sstr=3600234",
      "absolute_magnitude_h" : 22.1,
      "estimated_diameter" : {
        "kilometers" : {
          "estimated_diameter_min" : 0.1010543415,
          "estimated_diameter_max" : 0.2259643771
        },
        "meters" : {
          "estimated_diameter_min" : 101.054341542,
          "estimated_diameter_max" : 225.9643771094
        },
        "miles" : {
          "estimated_diameter_min" : 0.0627922373,
          "estimated_diameter_max" : 0.140407711
        },
        "feet" : {
          "estimated_diameter_min" : 331.5431259047,
          "estimated_diameter_max" : 741.3529669956
        }
      },
      "is_potentially_hazardous_asteroid" : false,
      "close_approach_data" : [ {
        "close_approach_date" : "2012-01-15",
        "epoch_date_close_approach" : 1326614400000,
        "relative_velocity" : {
          "kilometers_per_second" : "2.8476009223",
          "kilometers_per_hour" : "10251.3633201715",
          "miles_per_hour" : "6369.7985030255"
        },
        "miss_distance" : {
          "astronomical" : "0.1597092832",
          "lunar" : "62.126914978",
          "kilometers" : "23892170",
          "miles" : "14845906"
        },
        "orbiting_body" : "Earth"
      } ],
      "orbital_data" : {
        "orbit_id" : "8",
        "orbit_determination_date" : "2017-04-06 08:50:42",
        "orbit_uncertainty" : "6",
        "minimum_orbit_intersection" : ".113459",
        "jupiter_tisserand_invariant" : "5.309",
        "epoch_osculation" : "2458000.5",
        "eccentricity" : ".112519294240692",
        "semi_major_axis" : "1.191804934308969",
        "inclination" : "7.48356107563793",
        "ascending_node_longitude" : "353.8756834962704",
        "orbital_period" : "475.2325681396109",
        "perihelion_distance" : "1.05770388422795",
        "perihelion_argument" : "73.81691675364394",
        "aphelion_distance" : "1.325905984389989",
        "perihelion_time" : "2457792.536782443171",
        "mean_anomaly" : "157.53709518171",
        "mean_motion" : ".7575238401890029",
        "equinox" : "J2000"
      }
    }, {
      "links" : {
        "self" : "https://api.nasa.gov/neo/rest/v1/neo/3653468?api_key=t0TVs3DtDT2H8Oy2Zy8m2eVrNsAVKAexjcZXUckd"
      },
      "neo_reference_id" : "3653468",
      "name" : "(2013 VO4)",
      "nasa_jpl_url" : "http://ssd.jpl.nasa.gov/sbdb.cgi?sstr=3653468",
      "absolute_magnitude_h" : 27.1,
      "estimated_diameter" : {
        "kilometers" : {
          "estimated_diameter_min" : 0.0101054342,
          "estimated_diameter_max" : 0.0225964377
        },
        "meters" : {
          "estimated_diameter_min" : 10.1054341542,
          "estimated_diameter_max" : 22.5964377109
        },
        "miles" : {
          "estimated_diameter_min" : 0.0062792237,
          "estimated_diameter_max" : 0.0140407711
        },
        "feet" : {
          "estimated_diameter_min" : 33.1543125905,
          "estimated_diameter_max" : 74.1352966996
        }
      },
      "is_potentially_hazardous_asteroid" : false,
      "close_approach_data" : [ {
        "close_approach_date" : "2012-01-15",
        "epoch_date_close_approach" : 1326614400000,
        "relative_velocity" : {
          "kilometers_per_second" : "13.2329225381",
          "kilometers_per_hour" : "47638.5211372673",
          "miles_per_hour" : "29600.7244255426"
        },
        "miss_distance" : {
          "astronomical" : "0.2848749323",
          "lunar" : "110.8163528442",
          "kilometers" : "42616684",
          "miles" : "26480780"
        },
        "orbiting_body" : "Earth"
      } ],
      "orbital_data" : {
        "orbit_id" : "8",
        "orbit_determination_date" : "2017-04-06 08:43:49",
        "orbit_uncertainty" : "7",
        "minimum_orbit_intersection" : ".027274",
        "jupiter_tisserand_invariant" : "4.365",
        "epoch_osculation" : "2458000.5",
        "eccentricity" : ".357699130474928",
        "semi_major_axis" : "1.55449357519945",
        "inclination" : "4.379163191399879",
        "ascending_node_longitude" : "220.2040782517512",
        "orbital_period" : "707.9161562126117",
        "perihelion_distance" : ".9984525750217447",
        "perihelion_argument" : "209.6201191501143",
        "aphelion_distance" : "2.110534575377155",
        "perihelion_time" : "2458041.667101123193",
        "mean_anomaly" : "339.0650965170252",
        "mean_motion" : ".5085347987055681",
        "equinox" : "J2000"
      }
    }, {
      "links" : {
        "self" : "https://api.nasa.gov/neo/rest/v1/neo/3689350?api_key=t0TVs3DtDT2H8Oy2Zy8m2eVrNsAVKAexjcZXUckd"
      },
      "neo_reference_id" : "3689350",
      "name" : "(2014 SH142)",
      "nasa_jpl_url" : "http://ssd.jpl.nasa.gov/sbdb.cgi?sstr=3689350",
      "absolute_magnitude_h" : 22.2,
      "estimated_diameter" : {
        "kilometers" : {
          "estimated_diameter_min" : 0.096506147,
          "estimated_diameter_max" : 0.2157943048
        },
        "meters" : {
          "estimated_diameter_min" : 96.5061469579,
          "estimated_diameter_max" : 215.7943048444
        },
        "miles" : {
          "estimated_diameter_min" : 0.059966121,
          "estimated_diameter_max" : 0.134088323
        },
        "feet" : {
          "estimated_diameter_min" : 316.6212271853,
          "estimated_diameter_max" : 707.9865871058
        }
      },
      "is_potentially_hazardous_asteroid" : false,
      "close_approach_data" : [ {
        "close_approach_date" : "2012-01-15",
        "epoch_date_close_approach" : 1326614400000,
        "relative_velocity" : {
          "kilometers_per_second" : "18.5556438976",
          "kilometers_per_hour" : "66800.3180313154",
          "miles_per_hour" : "41507.1198345137"
        },
        "miss_distance" : {
          "astronomical" : "0.1778241493",
          "lunar" : "69.1735992432",
          "kilometers" : "26602116",
          "miles" : "16529788"
        },
        "orbiting_body" : "Earth"
      } ],
      "orbital_data" : {
        "orbit_id" : "8",
        "orbit_determination_date" : "2017-04-06 08:38:36",
        "orbit_uncertainty" : "8",
        "minimum_orbit_intersection" : ".0628847",
        "jupiter_tisserand_invariant" : "5.503",
        "epoch_osculation" : "2456921.5",
        "eccentricity" : ".509561818071419",
        "semi_major_axis" : "1.100682758468886",
        "inclination" : "11.6434865048233",
        "ascending_node_longitude" : "172.8977979087126",
        "orbital_period" : "421.7855258253877",
        "perihelion_distance" : ".5398168509436158",
        "perihelion_argument" : "48.97225327820319",
        "aphelion_distance" : "1.661548665994156",
        "perihelion_time" : "2456837.668712260730",
        "mean_anomaly" : "71.55120728023967",
        "mean_motion" : ".8535143525741423",
        "equinox" : "J2000"
      }
    } ]
  }
}